CSS (TIANHE)            
1 48274U 21035A   23314.79328758  .00036782  00000+0  41903-3 0  9993
2 48274  41.4724 343.3327 0003445 107.3702 252.7514 15.61514570144752
